start=new Date('2021-12-15T00:00:00.000Z').valueOf();
sats=[{"BSTAR":"-0.00004819500000","RCS_SIZE":"LARGE","OBJECT_NAME":"STARLINK-2214","ARG_OF_PERICENTER":"65.5344","PERIAPSIS":"545.565","MEAN_MOTION_DOT":"-0.00001000","LAUNCH_DATE":"2021-05-15","MEAN_ELEMENT_THEORY":"SGP4","REF_FRAME":"TEME","APOAPSIS":"548.902","MEAN_MOTION_DDOT":"0.0000000000000","SITE":"AFETR","TLE_LINE2":"2 48566  53.0555 243.0383 0002409  65.5344 294.5896 15.06393397 32003","ELEMENT_SET_NO":"999","OBJECT_TYPE":"PAYLOAD","SEMIMAJOR_AXIS":"6925.369","EPHEMERIS_TYPE":"0","CLASSIFICATION_TYPE":"U","NORAD_CAT_ID":"48566","REV_AT_EPOCH":"3200","ECCENTRICITY":"0.00024090","GP_ID":"191696769","CENTER_NAME":"EARTH","MEAN_ANOMALY":"294.5896","FILE":"3240057","DECAY_DATE":null,"TIME_SYSTEM":"UTC","EPOCH":"2021-12-14T10:23:02.186016","COUNTRY_CODE":"US","INCLINATION":"53.0555","PERIOD":"95.593","TLE_LINE1":"1 48566U 21041P   21348.43266419 -.00001000  00000-0 -48195-4 0  9994","MEAN_MOTION":"15.06393397","OBJECT_ID":"2021-041P","RA_OF_ASC_NODE":"243.0383"},{"PERIOD":"95.593","INCLINATION":"53.0546","TIME_SYSTEM":"UTC","EPOCH":"2021-12-14T12:15:52.026048","COUNTRY_CODE":"US","OBJECT_ID":"2021-041Q","RA_OF_ASC_NODE":"242.6773","MEAN_MOTION":"15.06393032","TLE_LINE1":"1 48567U 21041Q   21348.51101882  .00001123  00000-0  94342-4 0  9995","NORAD_CAT_ID":"48567","REV_AT_EPOCH":"3201","ECCENTRICITY":"0.00024340","MEAN_ANOMALY":"290.4156","FILE":"3240057","DECAY_DATE":null,"CENTER_NAME":"EARTH","GP_ID":"191697349","MEAN_MOTION_DDOT":"0.0000000000000","SITE":"AFETR","TLE_LINE2":"2 48567  53.0546 242.6773 0002434  69.7094 290.4156 15.06393032 32019","ELEMENT_SET_NO":"999","REF_FRAME":"TEME","MEAN_ELEMENT_THEORY":"SGP4","APOAPSIS":"548.921","EPHEMERIS_TYPE":"0","SEMIMAJOR_AXIS":"6925.370","CLASSIFICATION_TYPE":"U","OBJECT_TYPE":"PAYLOAD","OBJECT_NAME":"STARLINK-2215","ARG_OF_PERICENTER":"69.7094","PERIAPSIS":"545.549","MEAN_MOTION_DOT":"0.00001123","BSTAR":"0.00009434200000","RCS_SIZE":"LARGE","LAUNCH_DATE":"2021-05-15"},{"BSTAR":"-0.00002296400000","RCS_SIZE":"MEDIUM","MEAN_MOTION_DOT":"-0.00000624","PERIAPSIS":"545.484","OBJECT_NAME":"STARLINK-2217","ARG_OF_PERICENTER":"72.6686","LAUNCH_DATE":"2021-05-15","APOAPSIS":"548.968","MEAN_ELEMENT_THEORY":"SGP4","REF_FRAME":"TEME","SITE":"AFETR","TLE_LINE2":"2 48568  53.0519 231.7296 0002515  72.6686 287.4578 15.06395990 32580","ELEMENT_SET_NO":"999","MEAN_MOTION_DDOT":"0.0000000000000","OBJECT_TYPE":"PAYLOAD","EPHEMERIS_TYPE":"0","SEMIMAJOR_AXIS":"6925.361","CLASSIFICATION_TYPE":"U","ECCENTRICITY":"0.00025150","NORAD_CAT_ID":"48568","REV_AT_EPOCH":"3258","GP_ID":"191700452","CENTER_NAME":"EARTH","DECAY_DATE":null,"MEAN_ANOMALY":"287.4578","FILE":"3240208","TIME_SYSTEM":"UTC","EPOCH":"2021-12-14T17:19:43.622688","COUNTRY_CODE":"US","PERIOD":"95.592","INCLINATION":"53.0519","TLE_LINE1":"1 48568U 21041R   21348.72203267 -.00000624  00000-0 -22964-4 0  9997","MEAN_MOTION":"15.06395990","RA_OF_ASC_NODE":"231.7296","OBJECT_ID":"2021-041R"},{"CENTER_NAME":"EARTH","GP_ID":"191696189","FILE":"3240057","MEAN_ANOMALY":"290.1585","DECAY_DATE":null,"REV_AT_EPOCH":"3214","NORAD_CAT_ID":"48569","ECCENTRICITY":"0.00024950","TLE_LINE1":"1 48569U 21041S   21348.41610011  .00001355  00000-0  10987-3 0  9994","RA_OF_ASC_NODE":"233.1225","MEAN_MOTION":"15.06400728","OBJECT_ID":"2021-041S","COUNTRY_CODE":"US","EPOCH":"2021-12-14T09:59:11.049504","TIME_SYSTEM":"UTC","PERIOD":"95.592","INCLINATION":"53.0544","LAUNCH_DATE":"2021-05-15","RCS_SIZE":"LARGE","BSTAR":"0.00010987000000","ARG_OF_PERICENTER":"69.9672","OBJECT_NAME":"STARLINK-2219","MEAN_MOTION_DOT":"0.00001355","PERIAPSIS":"545.483","OBJECT_TYPE":"PAYLOAD","SEMIMAJOR_AXIS":"6925.346","EPHEMERIS_TYPE":"0","CLASSIFICATION_TYPE":"U","MEAN_ELEMENT_THEORY":"SGP4","REF_FRAME":"TEME","APOAPSIS":"548.939","MEAN_MOTION_DDOT":"0.0000000000000","ELEMENT_SET_NO":"999","TLE_LINE2":"2 48569  53.0544 233.1225 0002495  69.9672 290.1585 15.06400728 32145","SITE":"AFETR"},{"BSTAR":"0.00002020000000","RCS_SIZE":"LARGE","MEAN_MOTION_DOT":"0.00000019","PERIAPSIS":"545.523","OBJECT_NAME":"STARLINK-2220","ARG_OF_PERICENTER":"65.2137","LAUNCH_DATE":"2021-05-15","APOAPSIS":"548.921","MEAN_ELEMENT_THEORY":"SGP4","REF_FRAME":"TEME","SITE":"AFETR","TLE_LINE2":"2 48570  53.0543 241.3723 0002453  65.2137 294.9107 15.06397286 32459","ELEMENT_SET_NO":"999","MEAN_MOTION_DDOT":"0.0000000000000","OBJECT_TYPE":"PAYLOAD","CLASSIFICATION_TYPE":"U","SEMIMAJOR_AXIS":"6925.357","EPHEMERIS_TYPE":"0","ECCENTRICITY":"0.00024530","NORAD_CAT_ID":"48570","REV_AT_EPOCH":"3245","CENTER_NAME":"EARTH","GP_ID":"191700656","DECAY_DATE":null,"MEAN_ANOMALY":"294.9107","FILE":"3240208","TIME_SYSTEM":"UTC","EPOCH":"2021-12-14T19:15:10.200096","COUNTRY_CODE":"US","INCLINATION":"53.0543","PERIOD":"95.592","TLE_LINE1":"1 48570U 21041T   21348.80220139  .00000019  00000-0  20200-4 0  9993","OBJECT_ID":"2021-041T","RA_OF_ASC_NODE":"241.3723","MEAN_MOTION":"15.06397286"},{"BSTAR":"0.00006626800000","RCS_SIZE":"LARGE","PERIAPSIS":"545.594","MEAN_MOTION_DOT":"0.00000705","OBJECT_NAME":"STARLINK-2221","ARG_OF_PERICENTER":"66.3066","LAUNCH_DATE":"2021-05-15","APOAPSIS":"548.846","MEAN_ELEMENT_THEORY":"SGP4","REF_FRAME":"TEME","TLE_LINE2":"2 48571  53.0560 243.1388 0002348  66.3066 293.8169 15.06397856 32002","SITE":"AFETR","ELEMENT_SET_NO":"999","MEAN_MOTION_DDOT":"0.0000000000000","OBJECT_TYPE":"PAYLOAD","SEMIMAJOR_AXIS":"6925.355","CLASSIFICATION_TYPE":"U","EPHEMERIS_TYPE":"0","ECCENTRICITY":"0.00023480","NORAD_CAT_ID":"48571","REV_AT_EPOCH":"3200","CENTER_NAME":"EARTH","GP_ID":"191696963","DECAY_DATE":null,"MEAN_ANOMALY":"293.8169","FILE":"3240057","TIME_SYSTEM":"UTC","EPOCH":"2021-12-14T09:52:32.199456","COUNTRY_CODE":"US","PERIOD":"95.592","INCLINATION":"53.0560","TLE_LINE1":"1 48571U 21041U   21348.41148379  .00000705  00000-0  66268-4 0  9992","RA_OF_ASC_NODE":"243.1388","MEAN_MOTION":"15.06397856","OBJECT_ID":"2021-041U"},{"LAUNCH_DATE":"2021-05-15","ARG_OF_PERICENTER":"68.2934","OBJECT_NAME":"STARLINK-2222","MEAN_MOTION_DOT":"-0.00000554","PERIAPSIS":"545.562","RCS_SIZE":"LARGE","BSTAR":"-0.00001825200000","CLASSIFICATION_TYPE":"U","SEMIMAJOR_AXIS":"6925.358","EPHEMERIS_TYPE":"0","OBJECT_TYPE":"PAYLOAD","MEAN_MOTION_DDOT":"0.0000000000000","ELEMENT_SET_NO":"999","TLE_LINE2":"2 48572  53.0551 243.1426 0002399  68.2934 291.8311 15.06396794 32004","SITE":"AFETR","MEAN_ELEMENT_THEORY":"SGP4","REF_FRAME":"TEME","APOAPSIS":"548.885","FILE":"3240057","MEAN_ANOMALY":"291.8311","DECAY_DATE":null,"GP_ID":"191696383","CENTER_NAME":"EARTH","REV_AT_EPOCH":"3200","NORAD_CAT_ID":"48572","ECCENTRICITY":"0.00023990","MEAN_MOTION":"15.06396794","RA_OF_ASC_NODE":"243.1426","OBJECT_ID":"2021-041V","TLE_LINE1":"1 48572U 21041V   21348.40780820 -.00000554  00000-0 -18252-4 0  9999","PERIOD":"95.592","INCLINATION":"53.0551","EPOCH":"2021-12-14T09:47:14.628480","COUNTRY_CODE":"US","TIME_SYSTEM":"UTC"},{"TLE_LINE1":"1 48573U 21041W   21348.38661423 -.00000891  00000-0 -40925-4 0  9990","OBJECT_ID":"2021-041W","MEAN_MOTION":"15.06389424","RA_OF_ASC_NODE":"233.2394","COUNTRY_CODE":"US","EPOCH":"2021-12-14T09:16:43.469472","TIME_SYSTEM":"UTC","INCLINATION":"53.0535","PERIOD":"95.593","GP_ID":"191696576","CENTER_NAME":"EARTH","DECAY_DATE":null,"FILE":"3240057","MEAN_ANOMALY":"292.1662","ECCENTRICITY":"0.00026180","REV_AT_EPOCH":"3213","NORAD_CAT_ID":"48573","OBJECT_TYPE":"PAYLOAD","EPHEMERIS_TYPE":"0","SEMIMAJOR_AXIS":"6925.381","CLASSIFICATION_TYPE":"U","APOAPSIS":"549.059","MEAN_ELEMENT_THEORY":"SGP4","REF_FRAME":"TEME","ELEMENT_SET_NO":"999","SITE":"AFETR","TLE_LINE2":"2 48573  53.0535 233.2394 0002618  67.9605 292.1662 15.06389424 32135","MEAN_MOTION_DDOT":"0.0000000000000","LAUNCH_DATE":"2021-05-15","RCS_SIZE":"LARGE","BSTAR":"-0.00004092500000","MEAN_MOTION_DOT":"-0.00000891","PERIAPSIS":"545.433","ARG_OF_PERICENTER":"67.9605","OBJECT_NAME":"STARLINK-2224"},{"DECAY_DATE":null,"MEAN_ANOMALY":"129.3478","FILE":"3240218","CENTER_NAME":"EARTH","GP_ID":"191700666","ECCENTRICITY":"0.00027170","NORAD_CAT_ID":"48574","REV_AT_EPOCH":"3302","OBJECT_ID":"2021-041X","MEAN_MOTION":"15.06386818","RA_OF_ASC_NODE":"200.9002","TLE_LINE1":"1 48574U 21041X   21348.91667824  .00000421  00000-0  47189-4 0  9997","PERIOD":"95.593","INCLINATION":"53.0445","TIME_SYSTEM":"UTC","EPOCH":"2021-12-14T22:00:00.999936","COUNTRY_CODE":"US","LAUNCH_DATE":"2021-05-15","MEAN_MOTION_DOT":"0.00000421","PERIAPSIS":"545.372","OBJECT_NAME":"STARLINK-2225","ARG_OF_PERICENTER":"77.0092","BSTAR":"0.00004718900000","RCS_SIZE":"LARGE","EPHEMERIS_TYPE":"0","SEMIMAJOR_AXIS":"6925.389","CLASSIFICATION_TYPE":"U","OBJECT_TYPE":"PAYLOAD","TLE_LINE2":"2 48574  53.0445 200.9002 0002717  77.0092 129.3478 15.06386818 33024","SITE":"AFETR","ELEMENT_SET_NO":"999","MEAN_MOTION_DDOT":"0.0000000000000","APOAPSIS":"549.136","REF_FRAME":"TEME","MEAN_ELEMENT_THEORY":"SGP4"},{"OBJECT_ID":"2021-041Y","RA_OF_ASC_NODE":"193.4464","MEAN_MOTION":"15.34567250","TLE_LINE1":"1 48575U 21041Y   21348.58334491 -.01051564  00000-0 -33683-1 0  9990","PERIOD":"93.838","INCLINATION":"53.0547","TIME_SYSTEM":"UTC","COUNTRY_CODE":"US","EPOCH":"2021-12-14T14:00:01.000224","MEAN_ANOMALY":"245.4620","FILE":"3240057","DECAY_DATE":null,"GP_ID":"191697350","CENTER_NAME":"EARTH","NORAD_CAT_ID":"48575","REV_AT_EPOCH":"365","ECCENTRICITY":"0.00012660","CLASSIFICATION_TYPE":"U","SEMIMAJOR_AXIS":"6840.343","EPHEMERIS_TYPE":"0","OBJECT_TYPE":"PAYLOAD","MEAN_MOTION_DDOT":"0.0000000000000","TLE_LINE2":"2 48575  53.0547 193.4464 0001266  70.6093 245.4620 15.34567250  3651","SITE":"AFETR","ELEMENT_SET_NO":"999","MEAN_ELEMENT_THEORY":"SGP4","REF_FRAME":"TEME","APOAPSIS":"463.074","LAUNCH_DATE":"2021-05-15","OBJECT_NAME":"STARLINK-2227","ARG_OF_PERICENTER":"70.6093","MEAN_MOTION_DOT":"-0.01051564","PERIAPSIS":"461.342","BSTAR":"-0.03368300000000","RCS_SIZE":"LARGE"}];
